[{"OBJECT_NAME":"HYPERFIELD-1A","OBJECT_ID":"2024-149CY","EPOCH":"2026-03-09T18:21:25.814304","MEAN_MOTION":15.29681349,"ECCENTRICITY":0.00038648,"INCLINATION":97.3842,"RA_OF_ASC_NODE":149.5066,"ARG_OF_PERICENTER":313.7844,"MEAN_ANOMALY":46.3076,"EPHEMERIS_TYPE":0,"CLASSIFICATION_TYPE":"U","NORAD_CAT_ID":60562,"ELEMENT_SET_NO":999,"REV_AT_EPOCH":8683,"BSTAR":0.00030052114,"MEAN_MOTION_DOT":8.569e-5,"MEAN_MOTION_DDOT":0},{"OBJECT_NAME":"STARLINK-33875","OBJECT_ID":"2025-091Q","EPOCH":"2026-03-09T22:44:58.217856","MEAN_MOTION":15.27624461,"ECCENTRICITY":0.00011279,"INCLINATION":43.0018,"RA_OF_ASC_NODE":50.8927,"ARG_OF_PERICENTER":214.8728,"MEAN_ANOMALY":145.205,"EPHEMERIS_TYPE":0,"CLASSIFICATION_TYPE":"U","NORAD_CAT_ID":63789,"ELEMENT_SET_NO":999,"REV_AT_EPOCH":4894,"BSTAR":0.001093754,"MEAN_MOTION_DOT":0.00029999,"MEAN_MOTION_DDOT":0}]
